YAOGAN-30 06C           
1 44451U 19045C   26068.85043463  .00004352  00000+0  32596-3 0  9993
2 44451  34.9925 214.7382 0001081 261.6749  98.3837 15.02172666361604
STARLINK-5089           
1 56148U 23046BJ  26068.43704009  .00059331  00000+0  43155-2 0  9998
2 56148  43.0025 109.1420 0001595 212.4436 147.6309 15.03010147162617
